NORAD_CAT_ID,OBJECT_NAME,OBJECT_TYPE,EPOCH,MEAN_MOTION,ECCENTRICITY,INCLINATION,RA_OF_ASC_NODE,ARG_OF_PERICENTER,MEAN_ANOMALY,BSTAR,MEAN_MOTION_DOT,MEAN_MOTION_DDOT,TLE_LINE0,TLE_LINE1,TLE_LINE2,SEMIMAJOR_AXIS,PERIOD,APOGEE,PERIGEE,DECAYED
51148.0,STARLINK-3359,PAYLOAD,2022-03-20 06:00:00,15.29734506,0.0001237,53.2172,341.5591,69.9886,251.2616,-0.02434,-0.00659884,0.0,0 STARLINK-3359,1 51148U 22005AW  22079.25001157 -.00659884  00000-0 -24340-1 0  9995,2 51148  53.2172 341.5591 0001237  69.9886 251.2616 15.29734506 10723,6854.7419999999975,94.134,477.455,475.759,0.0
51148.0,STARLINK-3359,PAYLOAD,2022-03-20 14:00:01,15.292649,0.0001273,53.2173,340.0109,58.6349,299.0353,-0.024526,-0.00655642,0.0,0 STARLINK-3359,1 51148U 22005AW  22079.58334491 -.00655642  00000-0 -24526-1 0  9995,2 51148  53.2173 340.0109 0001273  58.6349 299.0353 15.29264900  3650,6856.146,94.163,478.883,477.138,0.0
51148.0,STARLINK-3359,PAYLOAD,2022-03-20 22:00:01,15.28801344,0.0001504,53.2175,338.4669,46.4235,347.1653,-0.025083,-0.00660644,0.0,0 STARLINK-3359,1 51148U 22005AW  22079.91668981 -.00660644  00000-0 -25083-1 0  9993,2 51148  53.2175 338.4669 0001504  46.4235 347.1653 15.28801344  3667,6857.531,94.191,480.42800000000005,478.365,0.0
51148.0,STARLINK-3359,PAYLOAD,2022-03-21 14:00:01,15.27867114,0.0001426,53.2173,335.3782,52.0807,51.4775,-0.025754,-0.00659194,0.0,0 STARLINK-3359,1 51148U 22005AW  22080.58334491 -.00659194  00000-0 -25754-1 0  9997,2 51148  53.2173 335.3782 0001426  52.0807  51.4775 15.27867114 10932,6860.3269999999975,94.249,483.17,481.213,0.0
51148.0,STARLINK-3359,PAYLOAD,2022-03-21 22:00:00,15.27400123,0.0001688,53.2173,333.8377,44.9542,92.7781,-0.026096,-0.0065854,0.0,0 STARLINK-3359,1 51148U 22005AW  22080.91667824 -.00658540  00000-0 -26096-1 0  9997,2 51148  53.2173 333.8377 0001688  44.9542  92.7781 15.27400123  3650,6861.725,94.278,484.74800000000016,482.432,0.0
51148.0,STARLINK-3359,PAYLOAD,2022-03-22 14:00:01,15.26468098,0.0001615,53.2171,330.7553,51.1207,153.28,-0.026928,-0.00660338,0.0,0 STARLINK-3359,1 51148U 22005AW  22081.58334491 -.00660338  00000-0 -26928-1 0  9994,2 51148  53.2171 330.7553 0001615  51.1207 153.2800 15.26468098  3679,6864.518,94.335,487.491,485.274,0.0
51148.0,STARLINK-3359,PAYLOAD,2022-03-22 20:00:01,15.26117792,0.0001771999999999,53.2175,329.6022,42.3384,96.4842,-0.027178,-0.00659494,0.0,0 STARLINK-3359,1 51148U 22005AW  22081.83334491 -.00659494  00000-0 -27178-1 0  9991,2 51148  53.2175 329.6022 0001772  42.3384  96.4842 15.26117792 11128,6865.568,94.357,488.65,486.216,0.0
51148.0,STARLINK-3359,PAYLOAD,2022-03-22 22:00:01,15.25999139,0.0001771999999999,53.2174,329.2181,46.0227,190.9346,-0.02713,-0.00656211,0.0,0 STARLINK-3359,1 51148U 22005AW  22081.91668981 -.00656211  00000-0 -27130-1 0  9996,2 51148  53.2174 329.2181 0001772  46.0227 190.9346 15.25999139  3667,6865.924,94.364,489.005,486.572,0.0
51148.0,STARLINK-3359,PAYLOAD,2022-03-23 14:00:01,15.25066275,0.0001493,53.2173,326.1423,53.0776,247.1211,-0.02793,-0.00656692,0.0,0 STARLINK-3359,1 51148U 22005AW  22082.58334491 -.00656692  00000-0 -27930-1 0  9997,2 51148  53.2173 326.1423 0001493  53.0776 247.1211 15.25066275  3671,6868.723000000001,94.422,491.614,489.56300000000016,0.0
51148.0,STARLINK-3359,PAYLOAD,2022-03-23 22:00:00,15.24601027,0.0001636,53.2174,324.6086,44.9173,286.0908,-0.028407,-0.00658491,0.0,0 STARLINK-3359,1 51148U 22005AW  22082.91667824 -.00658491  00000-0 -28407-1 0  9992,2 51148  53.2174 324.6086 0001636  44.9173 286.0908 15.24601027  3651,6870.121,94.451,493.11,490.862,0.0
51148.0,STARLINK-3359,PAYLOAD,2022-03-24 06:00:00,15.24136313,0.0001321,53.2173,323.074,58.6443,302.6137,-0.028952,-0.00661548,0.0,0 STARLINK-3359,1 51148U 22005AW  22083.25001157 -.00661548  00000-0 -28952-1 0  9993,2 51148  53.2173 323.0740 0001321  58.6443 302.6137 15.24136313 11337,6871.517,94.48,494.29,492.474,0.0
51148.0,STARLINK-3359,PAYLOAD,2022-03-24 14:00:01,15.23666226,0.0001479,53.2173,321.5392,47.6336,343.3165,-0.029101,-0.00656086,0.0,0 STARLINK-3359,1 51148U 22005AW  22083.58334491 -.00656086  00000-0 -29101-1 0  9997,2 51148  53.2173 321.5392 0001479  47.6336 343.3165 15.23666226  3633,6872.93,94.509,495.812,493.779,0.0
51148.0,STARLINK-3359,PAYLOAD,2022-03-24 22:00:00,15.23202518,0.0001799,53.2174,320.0089,37.0292,23.0478,-0.029721,-0.00660542,0.0,0 STARLINK-3359,1 51148U 22005AW  22083.91667824 -.00660542  00000-0 -29721-1 0  9993,2 51148  53.2174 320.0089 0001799  37.0292  23.0478 15.23202518  3651,6874.325,94.538,497.427,494.954,0.0
51148.0,STARLINK-3359,PAYLOAD,2022-03-25 12:00:00,15.22382656,0.0001422,53.2173,317.3285,49.0007,330.7057,-0.030174,-0.00654832,0.0,0 STARLINK-3359,1 51148U 22005AW  22084.50001157 -.00654832  00000-0 -30174-1 0  9999,2 51148  53.2173 317.3285 0001422  49.0007 330.7057 15.22382656 11524,6876.793000000002,94.589,499.636,497.68,0.0
51148.0,STARLINK-3359,PAYLOAD,2022-03-25 14:00:01,15.22268361,0.0001579,53.2174,316.946,49.1352,67.5197,-0.030479,-0.00658916,0.0,0 STARLINK-3359,1 51148U 22005AW  22084.58334491 -.00658916  00000-0 -30479-1 0  9992,2 51148  53.2174 316.9460 0001579  49.1352  67.5197 15.22268361  3642,6877.137,94.596,500.088,497.916,0.0
51148.0,STARLINK-3359,PAYLOAD,2022-03-25 22:00:01,15.21801666,0.0001899,53.2173,315.4189,40.0415,104.1232,-0.030895,-0.00658784,0.0,0 STARLINK-3359,1 51148U 22005AW  22084.91668981 -.00658784  00000-0 -30895-1 0  9998,2 51148  53.2173 315.4189 0001899  40.0415 104.1232 15.21801666  3668,6878.543000000002,94.625,501.714,499.102,0.0
51148.0,STARLINK-3359,PAYLOAD,2022-03-26 12:00:00,15.20984462,0.0001551999999999,53.2173,312.7442,46.8876,53.8987,-0.031589,-0.00657577,0.0,0 STARLINK-3359,1 51148U 22005AW  22085.50001157 -.00657577  00000-0 -31589-1 0  9990,2 51148  53.2173 312.7442 0001552  46.8876  53.8987 15.20984462 11684,6881.007,94.676,503.94,501.804,0.0
51148.0,STARLINK-3359,PAYLOAD,2022-03-26 14:00:01,15.20869123,0.0001634,53.2173,312.3626,52.8552,144.4594,-0.031791,-0.00659407,0.0,0 STARLINK-3359,1 51148U 22005AW  22085.58334491 -.00659407  00000-0 -31791-1 0  9997,2 51148  53.2173 312.3626 0001634  52.8552 144.4594 15.20869123  3625,6881.355,94.683,504.344,502.095,0.0
51148.0,STARLINK-3359,PAYLOAD,2022-03-26 22:00:00,15.20400872,0.0001925,53.2174,310.8387,41.7855,181.2941,-0.032094,-0.00656825,0.0,0 STARLINK-3359,1 51148U 22005AW  22085.91667824 -.00656825  00000-0 -32094-1 0  9991,2 51148  53.2174 310.8387 0001925  41.7855 181.2941 15.20400872  3659,6882.768,94.712,505.957,503.3080000000001,0.0
51148.0,STARLINK-3359,PAYLOAD,2022-03-27 14:00:01,15.19468019,0.0001678,53.2174,307.7888,47.8928,225.0365,-0.032979,-0.00663862,0.0,0 STARLINK-3359,1 51148U 22005AW  22086.58334491 -.00663862  00000-0 -32979-1 0  9997,2 51148  53.2174 307.7888 0001678  47.8928 225.0365 15.19468019 11845,6885.584,94.77,508.605,506.294,0.0
51148.0,STARLINK-3359,PAYLOAD,2022-03-27 22:00:01,15.19001892,0.0001774999999999,53.2175,306.2685,43.4557,253.6191,-0.033495,-0.00665084,0.0,0 STARLINK-3359,1 51148U 22005AW  22086.91668981 -.00665084  00000-0 -33495-1 0  9990,2 51148  53.2175 306.2685 0001775  43.4557 253.6191 15.19001892  3659,6886.993,94.799,510.08,507.635,0.0
51148.0,STARLINK-3359,PAYLOAD,2022-03-28 14:00:01,15.18067174,0.0001548,53.2176,303.2252,47.646,295.9152,-0.034231,-0.00661708,0.0,0 STARLINK-3359,1 51148U 22005AW  22087.58335648 -.00661708  00000-0 -34231-1 0  9993,2 51148  53.2176 303.2252 0001548  47.6460 295.9152 15.18067174  3643,6889.82,94.857,512.751,510.61800000000005,0.0
51148.0,STARLINK-3359,PAYLOAD,2022-03-28 22:00:00,15.17603614,0.0001757,53.2175,301.7081,39.7009,326.1965,-0.035017,-0.00667528,0.0,0 STARLINK-3359,1 51148U 22005AW  22087.91667824 -.00667528  00000-0 -35017-1 0  9993,2 51148  53.2175 301.7081 0001757  39.7009 326.1965 15.17603614 12045,6891.223000000001,94.886,514.298,511.877,0.0
51148.0,STARLINK-3359,PAYLOAD,2022-03-29 14:00:01,15.16542725,0.0001545,53.2167,298.6725,43.7817,5.3145,-0.026928,-0.00496873,0.0,0 STARLINK-3359,1 51148U 22005AW  22088.58334491 -.00496873  00000-0 -26928-1 0  9992,2 51148  53.2167 298.6725 0001545  43.7817   5.3145 15.16542725  3604,6894.436,94.953,517.366,515.236,0.0
51148.0,STARLINK-3359,PAYLOAD,2022-03-29 22:00:00,15.16081535,0.0001730999999999,53.217,297.159,48.0053,21.8006,-0.027263,-0.00496489,0.0,0 STARLINK-3359,1 51148U 22005AW  22088.91667824 -.00496489  00000-0 -27263-1 0  9994,2 51148  53.2170 297.1590 0001731  48.0053  21.8006 15.16081535  3605,6895.834,94.982,518.893,516.505,0.0
51148.0,STARLINK-3359,PAYLOAD,2022-03-30 02:00:01,15.15968576,0.0001626999999999,53.217,296.4006,47.1534,212.7341,-0.036429,-0.00662869,0.0,0 STARLINK-3359,1 51148U 22005AW  22089.08334491 -.00662869  00000-0 -36429-1 0  9995,2 51148  53.2170 296.4006 0001627  47.1534 212.7341 15.15968576 12226,6896.177,94.989,519.164,516.92,0.0
51148.0,STARLINK-3359,PAYLOAD,2022-03-30 14:00:01,15.15171903,0.0001758,53.2167,294.1283,37.1812,72.4275,-0.029237,-0.00522562,0.0,0 STARLINK-3359,1 51148U 22005AW  22089.58335648 -.00522562  00000-0 -29237-1 0  9999,2 51148  53.2167 294.1283 0001758  37.1812  72.4275 15.15171903  3606,6898.594,95.039,521.6709999999998,519.246,0.0
51148.0,STARLINK-3359,PAYLOAD,2022-03-30 22:00:00,15.1480335,0.0002004,53.2174,292.6165,37.2127,91.3209,-0.03786,-0.00666214,0.0,0 STARLINK-3359,1 51148U 22005AW  22089.91667824 -.00666214  00000-0 -37860-1 0  9994,2 51148  53.2174 292.6165 0002004  37.2127  91.3209 15.14803350  3661,6899.7130000000025,95.062,522.96,520.195,0.0
51148.0,STARLINK-3359,PAYLOAD,2022-03-31 06:00:00,15.14336471,0.000174,53.2174,291.1038,44.8456,102.1658,-0.038308,-0.0066526,0.0,0 STARLINK-3359,1 51148U 22005AW  22090.25001157 -.00665260  00000-0 -38308-1 0  9992,2 51148  53.2174 291.1038 0001740  44.8456 102.1658 15.14336471 12405,6901.130999999999,95.091,524.197,521.795,0.0
